[{"OBJECT_NAME":"STARLINK-34637","OBJECT_ID":"2025-147X","EPOCH":"2026-03-09T21:47:06.078336","MEAN_MOTION":15.30225265,"ECCENTRICITY":0.00011304,"INCLINATION":53.1569,"RA_OF_ASC_NODE":241.8392,"ARG_OF_PERICENTER":121.5104,"MEAN_ANOMALY":238.6007,"EPHEMERIS_TYPE":0,"CLASSIFICATION_TYPE":"U","NORAD_CAT_ID":64776,"ELEMENT_SET_NO":999,"REV_AT_EPOCH":3871,"BSTAR":0.00089008304,"MEAN_MOTION_DOT":0.00026116,"MEAN_MOTION_DDOT":0},{"OBJECT_NAME":"CZ-4C R\/B","OBJECT_ID":"2024-089B","EPOCH":"2026-03-09T16:45:24.409152","MEAN_MOTION":15.30115456,"ECCENTRICITY":0.00763424,"INCLINATION":97.7122,"RA_OF_ASC_NODE":107.3872,"ARG_OF_PERICENTER":235.0262,"MEAN_ANOMALY":124.3793,"EPHEMERIS_TYPE":0,"CLASSIFICATION_TYPE":"U","NORAD_CAT_ID":59729,"ELEMENT_SET_NO":999,"REV_AT_EPOCH":10143,"BSTAR":0.00030010198,"MEAN_MOTION_DOT":9.476e-5,"MEAN_MOTION_DDOT":0}]
